H1 CPF  1  HTS 2022  3 20 12  5791 larets           NONE
H2  0304206 5557    27944 2022 03 20  0  0  0 2022 03 25  0  0  0   180 1 1  0 0 0
H5  0.0560 
H9 
10 0 59661  57960.00000  0    -360533.444    -957809.747   -6992590.979
10 0 59661  58140.00000  0   -1514931.764    -242781.143   -6900189.774
10 0 59661  58320.00000  0   -2595362.250     510349.973   -6556832.993
10 0 59661  58500.00000  0   -3562209.537    1271930.174   -5975019.355
10 0 59661  58680.00000  0   -4380702.673    2011006.996   -5175826.567
10 0 59661  58860.00000  0   -5022167.500    2696563.500   -4188200.583
10 0 59661  59040.00000  0   -5465053.983    3298803.806   -3047961.673
10 0 59661  59220.00000  0   -5695696.324    3790434.544   -1796553.008
10 0 59661  59400.00000  0   -5708771.108    4147890.014    -479561.121
10 0 59661  59580.00000  0   -5507422.647    4352437.173     854945.850
10 0 59661  59760.00000  0   -5103040.873    4391101.976    2158198.407
10 0 59661  59940.00000  0   -4514694.062    4257361.918    3382543.224
10 0 59661  60120.00000  0   -3768250.179    3951573.222    4483213.854
10 0 59661  60300.00000  0   -2895234.279    3481109.291    5419981.788
10 0 59661  60480.00000  0   -1931480.911    2860206.328    6158622.290
10 0 59661  60660.00000  0    -915645.490    2109525.735    6672143.186
10 0 59661  60840.00000  0     112354.656    1255453.970    6941737.507
10 0 59661  61020.00000  0    1112903.512     329171.459    6957446.468
10 0 59661  61200.00000  0    2048206.639    -634479.488    6718521.280
10 0 59661  61380.00000  0    2883717.976   -1598295.340    6233476.539
10 0 59661  61560.00000  0    3589430.167   -2524143.081    5519828.208
10 0 59661  61740.00000  0    4140984.818   -3374476.341    4603511.477
10 0 59661  61920.00000  0    4520557.485   -4113880.768    3517984.746
10 0 59661  62100.00000  0    4717479.563   -4710586.093    2303034.389
10 0 59661  62280.00000  0    4728562.826   -5137870.213    1003310.628
10 0 59661  62460.00000  0    4558101.214   -5375280.270    -333351.599
10 0 59661  62640.00000  0    4217547.117   -5409603.772   -1657753.504
10 0 59661  62820.00000  0    3724879.085   -5235535.082   -2921215.261
10 0 59661  63000.00000  0    3103691.920   -4855998.158   -4077427.525
10 0 59661  63180.00000  0    2382064.425   -4282114.359   -5084184.033
10 0 59661  63360.00000  0    1591269.561   -3532824.315   -5904919.005
10 0 59661  63540.00000  0     764402.480   -2634195.951   -6509990.902
10 0 59661  63720.00000  0     -65009.947   -1618463.937   -6877688.193
10 0 59661  63900.00000  0    -864359.514    -522838.122   -6994935.603
10 0 59661  64080.00000  0   -1603214.549     611866.703   -6857695.797
10 0 59661  64260.00000  0   -2254452.157    1742732.512   -6471071.811
10 0 59661  64440.00000  0   -2795230.521    2826329.912   -5849116.873
10 0 59661  64620.00000  0   -3207778.522    3820358.054   -5014358.468
10 0 59661  64800.00000  0   -3479981.839    4685286.117   -3997036.341
10 0 59661  64980.00000  0   -3605740.724    5385934.009   -2834058.571
10 0 59661  65160.00000  0   -3585080.437    5892923.597   -1567706.003
10 0 59661  65340.00000  0   -3424012.558    6183943.282    -244120.193
10 0 59661  65520.00000  0   -3134144.359    6244754.853    1088381.444
10 0 59661  65700.00000  0   -2732054.670    6069886.959    2381096.628
10 0 59661  65880.00000  0   -2238453.545    5662966.171    3586758.968
10 0 59661  66060.00000  0   -1677178.709    5036667.841    4661291.760
10 0 59661  66240.00000  0   -1074085.073    4212301.385    5565427.871
10 0 59661  66420.00000  0    -455877.865    3219050.489    6266135.747
10 0 59661  66600.00000  0     151050.659    2092906.048    6737800.624
10 0 59661  66780.00000  0     721731.889     875342.132    6963130.733
10 0 59661  66960.00000  0    1233637.629    -388215.542    6933769.618
10 0 59661  67140.00000  0    1667565.840   -1650075.554    6650604.634
10 0 59661  67320.00000  0    2008366.797   -2862074.760    6123765.781
10 0 59661  67500.00000  0    2245485.685   -3977424.609    5372306.086
10 0 59661  67680.00000  0    2373300.611   -4952544.917    4423560.433
10 0 59661  67860.00000  0    2391244.751   -5748814.970    3312195.176
10 0 59661  68040.00000  0    2303704.202   -6334172.608    2078962.864
10 0 59661  68220.00000  0    2119687.703   -6684475.260     769197.113
10 0 59661  68400.00000  0    1852287.480   -6784551.971    -568891.182
10 0 59661  68580.00000  0    1517952.927   -6628892.110   -1886054.017
10 0 59661  68760.00000  0    1135609.457   -6221912.413   -3133896.321
10 0 59661  68940.00000  0     725679.237   -5577792.351   -4266712.564
10 0 59661  69120.00000  0     309063.924   -4719899.578   -5243186.986
10 0 59661  69300.00000  0     -93862.673   -3679850.188   -6027888.195
10 0 59661  69480.00000  0    -464199.776   -2496259.342   -6592508.433
10 0 59661  69660.00000  0    -785360.562   -1213247.641   -6916815.314
10 0 59661  69840.00000  0   -1043776.936     121228.436   -6989303.566
10 0 59661  70020.00000  0   -1229444.787    1457161.581   -6807544.584
10 0 59661  70200.00000  0   -1336295.310    2744335.538   -6378236.968
10 0 59661  70380.00000  0   -1362383.669    3934175.327   -5716967.909
10 0 59661  70560.00000  0   -1309891.467    4981558.600   -4847686.237
10 0 59661  70740.00000  0   -1184943.345    5846529.753   -3801889.165
10 0 59661  70920.00000  0    -997243.675    6495852.519   -2617532.334
10 0 59661  71100.00000  0    -759544.872    6904333.326   -1337691.858
10 0 59661  71280.00000  0    -486969.973    7055854.925      -9015.050
10 0 59661  71460.00000  0    -196218.677    6944063.424    1319986.673
10 0 59661  71640.00000  0      95303.643    6572663.427    2600739.973
10 0 59661  71820.00000  0     370385.157    5955292.680    3786418.969
10 0 59661  72000.00000  0     612890.388    5114998.477    4833677.533
10 0 59661  72180.00000  0     808583.946    4083337.814    5704249.111
10 0 59661  72360.00000  0     945852.884    2899139.974    6366328.786
10 0 59661  72540.00000  0    1016296.449    1607014.172    6795707.058
10 0 59661  72720.00000  0    1015155.259     255651.267    6976627.176
10 0 59661  72900.00000  0     941566.151   -1104010.989    6902343.440
10 0 59661  73080.00000  0     798631.543   -2420699.612    6575378.505
10 0 59661  73260.00000  0     593298.239   -3644742.412    6007465.825
10 0 59661  73440.00000  0     336048.116   -4729959.930    5219166.573
10 0 59661  73620.00000  0      40414.977   -5635440.858    4239173.519
10 0 59661  73800.00000  0    -277658.228   -6327151.321    3103314.602
10 0 59661  73980.00000  0    -600602.022   -6779299.853    1853260.173
10 0 59661  74160.00000  0    -910102.887   -6975379.010     534979.351
10 0 59661  74340.00000  0   -1188043.155   -6908831.813    -802997.925
10 0 59661  74520.00000  0   -1417445.155   -6583288.382   -2111440.313
10 0 59661  74700.00000  0   -1583365.223   -6012363.231   -3342295.881
10 0 59661  74880.00000  0   -1673693.823   -5219032.101   -4450510.629
10 0 59661  75060.00000  0   -1679818.051   -4234622.864   -5395699.802
10 0 59661  75240.00000  0   -1597114.432   -3097490.099   -6143599.578
10 0 59661  75420.00000  0   -1425253.490   -1851449.682   -6667258.634
10 0 59661  75600.00000  0   -1168306.666    -544045.739   -6947938.508
10 0 59661  75780.00000  0    -834657.633     775272.568   -6975709.931
10 0 59661  75960.00000  0    -436721.914    2056999.098   -6749748.741
10 0 59661  76140.00000  0       9513.259    3253390.160   -6278337.502
10 0 59661  76320.00000  0     485116.202    4320211.315   -5578578.298
10 0 59661  76500.00000  0     968988.561    5218360.031   -4675812.708
10 0 59661  76680.00000  0    1438765.190    5915311.691   -3602759.538
10 0 59661  76860.00000  0    1871805.471    6386335.500   -2398380.434
10 0 59661  77040.00000  0    2246234.312    6615425.039   -1106501.291
10 0 59661  77220.00000  0    2541985.688    6595895.282     225773.444
10 0 59661  77400.00000  0    2741794.458    6330603.884    1549793.317
10 0 59661  77580.00000  0    2832084.413    5831783.918    2817164.407
10 0 59661  77760.00000  0    2803707.933    5120496.742    3981547.137
10 0 59661  77940.00000  0    2652499.712    4225730.413    5000375.186
10 0 59661  78120.00000  0    2379609.547    3183183.410    5836421.862
10 0 59661  78300.00000  0    1991603.267    2033803.916    6459140.409
10 0 59661  78480.00000  0    1500335.939     822161.190    6845752.840
10 0 59661  78660.00000  0     922595.286    -405292.572    6982054.248
10 0 59661  78840.00000  0     279531.985   -1601996.763    6862919.731
10 0 59661  79020.00000  0    -404108.927   -2723046.316    6492507.073
10 0 59661  79200.00000  0   -1100933.532   -3726884.710    5884137.129
10 0 59661  79380.00000  0   -1781983.693   -4576862.958    5059854.740
10 0 59661  79560.00000  0   -2417933.709   -5242620.141    4049688.197
10 0 59661  79740.00000  0   -2980361.083   -5701237.700    2890597.722
10 0 59661  79920.00000  0   -3443024.026   -5938096.460    1625129.513
10 0 59661  80100.00000  0   -3783081.325   -5947390.898     299831.683
10 0 59661  80280.00000  0   -3982193.938   -5732273.382   -1036508.113
10 0 59661  80460.00000  0   -4027446.788   -5304613.321   -2334728.709
10 0 59661  80640.00000  0   -3912037.306   -4684377.779   -3547175.942
10 0 59661  80820.00000  0   -3635692.625   -3898671.556   -4629501.817
10 0 59661  81000.00000  0   -3204799.775   -2980501.397   -5542299.352
10 0 59661  81180.00000  0   -2632252.897   -1967336.269   -6252512.423
10 0 59661  81360.00000  0   -1937032.541    -899538.819   -6734577.831
10 0 59661  81540.00000  0   -1143539.597     181260.381   -6971272.309
10 0 59661  81720.00000  0    -280720.356    1233775.608   -6954252.535
10 0 59661  81900.00000  0     618984.994    2218612.845   -6684300.271
10 0 59661  82080.00000  0    1520841.889    3099711.655   -6171276.676
10 0 59661  82260.00000  0    2389140.126    3845645.503   -5433782.404
99
